{
    "links": {
        "self": "http://www.neowsapp.com/rest/v1/neo/3721993?api_key=iIulBulltgU6a56xZRHN4H3l9WmuAYTsLGpBGhQ2"
    },
    "id": "3721993",
    "neo_reference_id": "3721993",
    "name": "(2015 KH160)",
    "designation": "2015 KH160",
    "nasa_jpl_url": "http://ssd.jpl.nasa.gov/sbdb.cgi?sstr=3721993",
    "absolute_magnitude_h": 26.4,
    "estimated_diameter": {
        "kilometers": {
            "estimated_diameter_min": 0.0139493823,
            "estimated_diameter_max": 0.0311917671
        },
        "meters": {
            "estimated_diameter_min": 13.9493822934,
            "estimated_diameter_max": 31.1917670523
        },
        "miles": {
            "estimated_diameter_min": 0.0086677416,
            "estimated_diameter_max": 0.0193816595
        },
        "feet": {
            "estimated_diameter_min": 45.7656914036,
            "estimated_diameter_max": 102.3351970157
        }
    },
    "is_potentially_hazardous_asteroid": false,
    "close_approach_data": [
        {
            "close_approach_date": "2015-05-23",
            "close_approach_date_full": "2015-May-23 07:55",
            "epoch_date_close_approach": 1432367700000,
            "relative_velocity": {
                "kilometers_per_second": "28.7164180023",
                "kilometers_per_hour": "103379.1048081623",
                "miles_per_hour": "64235.7554292717"
            },
            "miss_distance": {
                "astronomical": "0.0067444413",
                "lunar": "2.6235876657",
                "kilometers": "1008954.052820031",
                "miles": "626934.9770611878"
            },
            "orbiting_body": "Moon"
        },
        {
            "close_approach_date": "2015-05-23",
            "close_approach_date_full": "2015-May-23 09:03",
            "epoch_date_close_approach": 1432371780000,
            "relative_velocity": {
                "kilometers_per_second": "29.6495626227",
                "kilometers_per_hour": "106738.4254416196",
                "miles_per_hour": "66323.1066306552"
            },
            "miss_distance": {
                "astronomical": "0.0043742069",
                "lunar": "1.7015664841",
                "kilometers": "654372.035179303",
                "miles": "406607.9280002614"
            },
            "orbiting_body": "Earth"
        }
    ],
    "orbital_data": {
        "orbit_id": "3",
        "orbit_determination_date": "2017-04-06 08:33:14",
        "first_observation_date": "2015-05-26",
        "last_observation_date": "2015-05-27",
        "data_arc_in_days": 1,
        "observations_used": 18,
        "orbit_uncertainty": "9",
        "minimum_orbit_intersection": ".00207672",
        "jupiter_tisserand_invariant": "2.620",
        "epoch_osculation": "2457169.5",
        "eccentricity": ".8701039277435891",
        "semi_major_axis": "2.714365576139894",
        "inclination": "9.031804455918685",
        "ascending_node_longitude": "241.1615498872245",
        "orbital_period": "1633.43153279156",
        "perihelion_distance": ".352585427008582",
        "perihelion_argument": "247.1377408147394",
        "aphelion_distance": "5.076145725271206",
        "perihelion_time": "2457123.516106315480",
        "mean_anomaly": "10.13461623220645",
        "mean_motion": ".2203949126565191",
        "equinox": "J2000",
        "orbit_class": {
            "orbit_class_type": "APO",
            "orbit_class_description": "Near-Earth asteroid orbits which cross the Earth’s orbit similar to that of 1862 Apollo",
            "orbit_class_range": "a (semi-major axis) > 1.0 AU; q (perihelion) < 1.017 AU"
        }
    },
    "is_sentry_object": false
}